$$SOE
2459580.500000000, A.D. 2022-Jan-01 00:00:00.0000, 2.354352673705231E+08, 2.571903046763968E+08, 2.538414691823381E+07,
2459587.500000000, A.D. 2022-Jan-08 00:00:00.0000, 2.265043076413252E+08, 2.642833899296240E+08, 2.526763469225162E+07,
2459594.500000000, A.D. 2022-Jan-15 00:00:00.0000, 2.173146546161985E+08, 2.710745772928286E+08, 2.512226096047175E+07,
2459601.500000000, A.D. 2022-Jan-22 00:00:00.0000, 2.078754258642482E+08, 2.775543873252011E+08, 2.494803182148600E+07,
2459608.500000000, A.D. 2022-Jan-29 00:00:00.0000, 1.981960816161024E+08, 2.837135320554824E+08, 2.474498108078249E+07,
2459615.500000000, A.D. 2022-Feb-05 00:00:00.0000, 1.882864251182933E+08, 2.895429254119905E+08, 2.451317109244344E+07,
2459622.500000000, A.D. 2022-Feb-12 00:00:00.0000, 1.781566049778068E+08, 2.950336932418185E+08, 2.425269333972409E+07,
2459629.500000000, A.D. 2022-Feb-19 00:00:00.0000, 1.678171181247829E+08, 3.001771853045035E+08, 2.396366906695576E+07,
2459636.500000000, A.D. 2022-Feb-26 00:00:00.0000, 1.572788120267536E+08, 3.049649885332263E+08, 2.364625002154851E+07,
2459643.500000000, A.D. 2022-Mar-05 00:00:00.0000, 1.465528862568747E+08, 3.093889409634534E+08, 2.330061923881206E+07,
2459650.500000000, A.D. 2022-Mar-12 00:00:00.0000, 1.356508935787297E+08, 3.134411462778212E+08, 2.292699184126094E+07,
2459657.500000000, A.D. 2022-Mar-19 00:00:00.0000, 1.245847405560056E+08, 3.171139890066823E+08, 2.252561584514503E+07,
2459664.500000000, A.D. 2022-Mar-26 00:00:00.0000, 1.133666876428538E+08, 3.204001503862714E+08, 2.209677296825972E+07,
2459671.500000000, A.D. 2022-Apr-02 00:00:00.0000, 1.020093487521565E+08, 3.232926248227429E+08, 2.164077942449616E+07,
2459678.500000000, A.D. 2022-Apr-09 00:00:00.0000, 9.052569049904624E+07, 3.257847369673397E+08, 2.115798667655174E+07,
2459685.500000000, A.D. 2022-Apr-16 00:00:00.0000, 7.892903139907581E+07, 3.278701600547777E+08, 2.064878216322942E+07,
2459692.500000000, A.D. 2022-Apr-23 00:00:00.0000, 6.723303967478573E+07, 3.295429365808898E+08, 2.011359020108831E+07,
2459699.500000000, A.D. 2022-Apr-30 00:00:00.0000, 5.545172771657585E+07, 3.307974990486866E+08, 1.955287304206923E+07,
2459706.500000000, A.D. 2022-May-07 00:00:00.0000, 4.359944616396597E+07, 3.316286887845808E+08, 1.896713163985230E+07,
2459713.500000000, A.D. 2022-May-14 00:00:00.0000, 3.169087890751177E+07, 3.320317758439856E+08, 1.835690624028856E+07,
2459720.500000000, A.D. 2022-May-21 00:00:00.0000, 1.974103689194860E+07, 3.320024807263409E+08, 1.772277703668746E+07,
2459727.500000000, A.D. 2022-May-28 00:00:00.0000, 7.765250145741139E+06, 3.315369968903817E+08, 1.706536484787895E+07,
2459734.500000000, A.D. 2022-Jun-04 00:00:00.0000, -4.220841783728784E+06, 3.306320137002570E+08, 1.638533176025103E+07,
2459741.500000000, A.D. 2022-Jun-11 00:00:00.0000, -1.620130094245785E+07, 3.292847397390763E+08, 1.568338171231917E+07,
2459748.500000000, A.D. 2022-Jun-18 00:00:00.0000, -2.815990368835779E+07, 3.274929264268480E+08, 1.496026101045823E+07,
2459755.500000000, A.D. 2022-Jun-25 00:00:00.0000, -4.008015508306069E+07, 3.252548918217914E+08, 1.421675876097913E+07,
2459762.500000000, A.D. 2022-Jul-02 00:00:00.0000, -5.194530491759101E+07, 3.225695444392502E+08, 1.345370719103442E+07,
2459769.500000000, A.D. 2022-Jul-09 00:00:00.0000, -6.373836507394553E+07, 3.194364071527585E+08, 1.267198182683800E+07,
2459776.500000000, A.D. 2022-Jul-16 00:00:00.0000, -7.544212836723863E+07, 3.158556421375803E+08, 1.187250161226436E+07,
2459783.500000000, A.D. 2022-Jul-23 00:00:00.0000, -8.703919114743471E+07, 3.118280768029890E+08, 1.105622916454791E+07,
2459790.500000000, A.D. 2022-Jul-30 00:00:00.0000, -9.851197964397292E+07, 3.073552272031894E+08, 1.022417087355226E+07,
2459797.500000000, A.D. 2022-Aug-06 00:00:00.0000, -1.098427765252549E+08, 3.024393194018536E+08, 9.377376556903213E+06,
2459804.500000000, A.D. 2022-Aug-13 00:00:00.0000, -1.210137485572294E+08, 2.970833113799903E+08, 8.516938960165381E+06,
2459811.500000000, A.D. 2022-Aug-20 00:00:00.0000, -1.320069769647495E+08, 2.912909148022655E+08, 7.643993192192808E+06,
2459818.500000000, A.D. 2022-Aug-27 00:00:00.0000, -1.428044904440517E+08, 2.850666157097409E+08, 6.759716017610118E+06,
2459825.500000000, A.D. 2022-Sep-03 00:00:00.0000, -1.533883005781066E+08, 2.784156938048698E+08, 5.865324962925643E+06,
2459832.500000000, A.D. 2022-Sep-10 00:00:00.0000, -1.637404395503812E+08, 2.713442401128725E+08, 4.962077219738945E+06,
2459839.500000000, A.D. 2022-Sep-17 00:00:00.0000, -1.738430001030389E+08, 2.638591727716769E+08, 4.051268333756670E+06,
2459846.500000000, A.D. 2022-Sep-24 00:00:00.0000, -1.836781776387550E+08, 2.559682506588708E+08, 3.134230662287742E+06,
2459853.500000000, A.D. 2022-Oct-01 00:00:00.0000, -1.932283141575877E+08, 2.476800845986498E+08, 2.212331568563804E+06,
2459860.500000000, A.D. 2022-Oct-08 00:00:00.0000, -2.024759435184118E+08, 2.390041464337125E+08, 1.286971350486234E+06,
2459867.500000000, A.D. 2022-Oct-15 00:00:00.0000, -2.114038388232214E+08, 2.299507769189079E+08, 3.595810805517286E+05,
2459874.500000000, A.D. 2022-Oct-22 00:00:00.0000, -2.199950639446060E+08, 2.205311905138162E+08, -5.683795860196650E+05,
2459881.500000000, A.D. 2022-Oct-29 00:00:00.0000, -2.282330264970224E+08, 2.107574742425630E+08, -1.495425078547984E+06,
2459888.500000000, A.D. 2022-Nov-05 00:00:00.0000, -2.361015299227005E+08, 2.006425831180909E+08, -2.420047020559654E+06,
2459895.500000000, A.D. 2022-Nov-12 00:00:00.0000, -2.435848264151332E+08, 1.902003331796022E+08, -3.340717495846741E+06,
2459902.500000000, A.D. 2022-Nov-19 00:00:00.0000, -2.506676711222523E+08, 1.794453909995236E+08, -4.255892478995912E+06,
2459909.500000000, A.D. 2022-Nov-26 00:00:00.0000, -2.573353770539262E+08, 1.683932590892097E+08, -5.164015479300082E+06,
2459916.500000000, A.D. 2022-Dec-03 00:00:00.0000, -2.635738701889156E+08, 1.570602570421433E+08, -6.063521403578758E+06,
2459923.500000000, A.D. 2022-Dec-10 00:00:00.0000, -2.693697443734044E+08, 1.454634983150503E+08, -6.952840627166241E+06,
2459930.500000000, A.D. 2022-Dec-17 00:00:00.0000, -2.747103156021518E+08, 1.336208625389328E+08, -7.830403261131808E+06,
2459937.500000000, A.D. 2022-Dec-24 00:00:00.0000, -2.795836751698200E+08, 1.215509632496643E+08, -8.694643611961424E+06,
2459944.500000000, A.D. 2022-Dec-31 00:00:00.0000, -2.839787409167187E+08, 1.092731111425496E+08, -9.544004835574050E+06,
2459951.500000000, A.D. 2023-Jan-07 00:00:00.0000, -2.878853060176986E+08, 9.680727385360175E+07, -1.037694369324787E+07,
2459958.500000000, A.D. 2023-Jan-14 00:00:00.0000, -2.912940868507057E+08, 8.417403285002960E+07, -1.119193516114520E+07,
2459965.500000000, A.D. 2023-Jan-21 00:00:00.0000, -2.941967701671628E+08, 7.139453439443026E+07, -1.198747706508681E+07,
2459972.500000000, A.D. 2023-Jan-28 00:00:00.0000, -2.965860554749029E+08, 5.849043457951681E+07, -1.276209506165435E+07,
2459979.500000000, A.D. 2023-Feb-04 00:00:00.0000, -2.984556924205744E+08, 4.548384169488483E+07, -1.351434766335293E+07,
2459986.500000000, A.D. 2023-Feb-11 00:00:00.0000, -2.998005145755835E+08, 3.239725600547719E+07, -1.424283112353667E+07,
2459993.500000000, A.D. 2023-Feb-18 00:00:00.0000, -3.006164693359684E+08, 1.925350644596415E+07, -1.494618420854940E+07,
2460000.500000000, A.D. 2023-Feb-25 00:00:00.0000, -3.009006433482026E+08, 6.075684445200524E+06, -1.562309285907516E+07,
2460007.500000000, A.D. 2023-Mar-04 00:00:00.0000, -3.006512830679120E+08, -7.112924686783681E+06, -1.627229471247266E+07,
2460014.500000000, A.D. 2023-Mar-11 00:00:00.0000, -2.998678101764718E+08, -2.028891236066540E+07, -1.689258345332097E+07,
2460021.500000000, A.D. 2023-Mar-18 00:00:00.0000, -2.985508316108659E+08, -3.342881886857984E+07, -1.748281296633476E+07,
2460028.500000000, A.D. 2023-Mar-25 00:00:00.0000, -2.967021438565139E+08, -4.650920664559833E+07, -1.804190128108203E+07,
2460035.500000000, A.D. 2023-Apr-01 00:00:00.0000, -2.943247309826386E+08, -5.950673371511036E+07, -1.856883428324835E+07,
2460042.500000000, A.D. 2023-Apr-08 00:00:00.0000, -2.914227569917406E+08, -7.239822556198020E+07, -1.906266900517697E+07,
2460049.500000000, A.D. 2023-Apr-15 00:00:00.0000, -2.880015548343310E+08, -8.516074601321849E+07, -1.952253634397943E+07,
2460056.500000000, A.D. 2023-Apr-22 00:00:00.0000, -2.840676103625214E+08, -9.777166966410311E+07, -1.994764360017584E+07,
2460063.500000000, A.D. 2023-Apr-29 00:00:00.0000, -2.796285386367487E+08, -1.102087530936175E+08, -2.033727688630369E+07,
2460070.500000000, A.D. 2023-May-06 00:00:00.0000, -2.746930545482438E+08, -1.224502025984663E+08, -2.069080308477575E+07,
2460077.500000000, A.D. 2023-May-13 00:00:00.0000, -2.692709389859611E+08, -1.344747388766739E+08, -2.100767132956037E+07,
2460084.500000000, A.D. 2023-May-20 00:00:00.0000, -2.633730006195623E+08, -1.462616587248434E+08, -2.128741407078078E+07,
2460091.500000000, A.D. 2023-May-27 00:00:00.0000, -2.570110334588957E+08, -1.577908933854393E+08, -2.152964774421787E+07,
2460098.500000000, A.D. 2023-Jun-03 00:00:00.0000, -2.501977705198248E+08, -1.690430631602473E+08, -2.173407305234834E+07,
2460105.500000000, A.D. 2023-Jun-10 00:00:00.0000, -2.429468339820450E+08, -1.799995279872758E+08, -2.190047486455832E+07,
2460112.500000000, A.D. 2023-Jun-17 00:00:00.0000, -2.352726821729527E+08, -1.906424337738136E+08, -2.202872175529871E+07,
2460119.500000000, A.D. 2023-Jun-24 00:00:00.0000, -2.271905534910339E+08, -2.009547542225206E+08, -2.211876521441010E+07,
2460126.500000000, A.D. 2023-Jul-01 00:00:00.0000, -2.187164074643041E+08, -2.109203271813602E+08, -2.217063850151716E+07,
2460133.500000000, A.D. 2023-Jul-08 00:00:00.0000, -2.098668650845557E+08, -2.205238846139440E+08, -2.218445494722006E+07,
2460140.500000000, A.D. 2023-Jul-15 00:00:00.0000, -2.006591501703115E+08, -2.297510789873097E+08, -2.216040584251128E+07,
2460147.500000000, A.D. 2023-Jul-22 00:00:00.0000, -1.911110287092434E+08, -2.385885071224039E+08, -2.209875835173433E+07,
$$EOE